[{"OBJECT_NAME":"GEOSCAN 3 (RS92S3)","OBJECT_ID":"2025-155T","EPOCH":"2026-03-09T22:52:10.587648","MEAN_MOTION":15.31696739,"ECCENTRICITY":0.00068078,"INCLINATION":97.4455,"RA_OF_ASC_NODE":37.9971,"ARG_OF_PERICENTER":154.1387,"MEAN_ANOMALY":206.0196,"EPHEMERIS_TYPE":0,"CLASSIFICATION_TYPE":"U","NORAD_CAT_ID":64893,"ELEMENT_SET_NO":999,"REV_AT_EPOCH":6564,"BSTAR":0.00078414081,"MEAN_MOTION_DOT":0.00023985,"MEAN_MOTION_DDOT":0},{"OBJECT_NAME":"STARLINK-35031","OBJECT_ID":"2025-192A","EPOCH":"2026-03-09T17:39:49.785696","MEAN_MOTION":15.30195571,"ECCENTRICITY":8.13e-5,"INCLINATION":53.16,"RA_OF_ASC_NODE":242.6371,"ARG_OF_PERICENTER":46.8896,"MEAN_ANOMALY":313.2172,"EPHEMERIS_TYPE":0,"CLASSIFICATION_TYPE":"U","NORAD_CAT_ID":65404,"ELEMENT_SET_NO":999,"REV_AT_EPOCH":2924,"BSTAR":0.0010727259,"MEAN_MOTION_DOT":0.00031542,"MEAN_MOTION_DDOT":0}]
